{
    "links": {
        "self": "http://www.neowsapp.com/rest/v1/neo/3398086?api_key=iIulBulltgU6a56xZRHN4H3l9WmuAYTsLGpBGhQ2"
    },
    "id": "3398086",
    "neo_reference_id": "3398086",
    "name": "(2007 XV23)",
    "designation": "2007 XV23",
    "nasa_jpl_url": "http://ssd.jpl.nasa.gov/sbdb.cgi?sstr=3398086",
    "absolute_magnitude_h": 25.1,
    "estimated_diameter": {
        "kilometers": {
            "estimated_diameter_min": 0.0253837029,
            "estimated_diameter_max": 0.0567596853
        },
        "meters": {
            "estimated_diameter_min": 25.3837029364,
            "estimated_diameter_max": 56.7596852866
        },
        "miles": {
            "estimated_diameter_min": 0.0157726969,
            "estimated_diameter_max": 0.0352688224
        },
        "feet": {
            "estimated_diameter_min": 83.279867942,
            "estimated_diameter_max": 186.2194458756
        }
    },
    "is_potentially_hazardous_asteroid": false,
    "close_approach_data": [
        {
            "close_approach_date": "2007-12-11",
            "close_approach_date_full": "2007-Dec-11 06:25",
            "epoch_date_close_approach": 1197354300000,
            "relative_velocity": {
                "kilometers_per_second": "8.9465595492",
                "kilometers_per_hour": "32207.6143769962",
                "miles_per_hour": "20012.5590555286"
            },
            "miss_distance": {
                "astronomical": "0.0242516485",
                "lunar": "9.4338912665",
                "kilometers": "3627994.959588695",
                "miles": "2254331.533146191"
            },
            "orbiting_body": "Earth"
        },
        {
            "close_approach_date": "2078-07-07",
            "close_approach_date_full": "2078-Jul-07 02:06",
            "epoch_date_close_approach": 3424385160000,
            "relative_velocity": {
                "kilometers_per_second": "6.1882409351",
                "kilometers_per_hour": "22277.6673663628",
                "miles_per_hour": "13842.4761477269"
            },
            "miss_distance": {
                "astronomical": "1.0202578917",
                "lunar": "396.8803198713",
                "kilometers": "152628407.449010679",
                "miles": "94838894.6508342102"
            },
            "orbiting_body": "Juptr"
        }
    ],
    "orbital_data": {
        "orbit_id": "9",
        "orbit_determination_date": "2017-04-06 09:04:55",
        "first_observation_date": "2007-12-14",
        "last_observation_date": "2008-01-03",
        "data_arc_in_days": 20,
        "observations_used": 27,
        "orbit_uncertainty": "8",
        "minimum_orbit_intersection": ".0211355",
        "jupiter_tisserand_invariant": "2.942",
        "epoch_osculation": "2454453.5",
        "eccentricity": ".6498124911086606",
        "semi_major_axis": "2.858192900989341",
        "inclination": "5.382520519947646",
        "ascending_node_longitude": "81.07921200127971",
        "orbital_period": "1764.963511058084",
        "perihelion_distance": "1.000903451928368",
        "perihelion_argument": "346.8276723718852",
        "aphelion_distance": "4.715482350050314",
        "perihelion_time": "2454437.532686547650",
        "mean_anomaly": "3.256856477106414",
        "mean_motion": ".2039702224688953",
        "equinox": "J2000",
        "orbit_class": {
            "orbit_class_type": "APO",
            "orbit_class_description": "Near-Earth asteroid orbits which cross the Earth’s orbit similar to that of 1862 Apollo",
            "orbit_class_range": "a (semi-major axis) > 1.0 AU; q (perihelion) < 1.017 AU"
        }
    },
    "is_sentry_object": false
}